STARLINK-11677 [DTC]    
1 63751U 25089A   25127.91668981 -.01009829  00000+0 -47473-2 0  9998
2 63751  43.0052 338.4549 0001485 262.6517 355.9135 15.84647014  2026
STARLINK-11702 [DTC]    
1 63752U 25089B   25127.91668981  .00004103  00000+0  19435-4 0  9995
2 63752  43.0052 338.4511 0002318 258.0844   1.9220 15.84750398  2027
STARLINK-11706 [DTC]    
1 63753U 25089C   25128.25002315 -.00072422  00000+0 -30158-3 0  9992
2 63753  43.0057 336.3909 0002408 243.9510 122.7324 15.84791976  2062
STARLINK-11662 [DTC]    
1 63754U 25089D   25127.91668981  .00004922  00000+0  22848-4 0  9998
2 63754  43.0053 338.4403 0002395 269.7536 354.5757 15.84750195  2074
STARLINK-11681 [DTC]    
1 63755U 25089E   25128.25002315 -.00090770  00000+0 -37911-3 0  9994
2 63755  43.0056 336.3785 0002529 258.0007 113.5138 15.84805485  2069
STARLINK-11688 [DTC]    
1 63756U 25089F   25128.25002315 -.00086329  00000+0 -36035-3 0  9996
2 63756  43.0050 336.3715 0002094 272.7143 101.1690 15.84802949  1953
STARLINK-11676 [DTC]    
1 63757U 25089G   25127.91668981  .00031383  00000+0  13288-3 0  9999
2 63757  43.0053 338.4181 0001685 252.1866  20.9454 15.84730827  1913
STARLINK-11705 [DTC]    
1 63758U 25089H   25127.91668981  .00036563  00000+0  15436-3 0  9992
2 63758  43.0053 338.4127 0001636 255.9807  19.3248 15.84727896  1977
STARLINK-11703 [DTC]    
1 63759U 25089J   25127.91668981  .00019039  00000+0  81579-4 0  9994
2 63759  43.0054 338.4046 0001906 255.8858  22.6001 15.84746514  2023
STARLINK-11701 [DTC]    
1 63760U 25089K   25128.25002315 -.00091016  00000+0 -38019-3 0  9994
2 63760  43.0049 336.3434 0001763 259.6065 125.4369 15.84807180  2060
STARLINK-11660 [DTC]    
1 63761U 25089L   25128.25002315 -.00084559  00000+0 -35285-3 0  9991
2 63761  43.0050 336.3365 0002204 268.7043 119.0812 15.84801840  2018
STARLINK-11699 [DTC]    
1 63762U 25089M   25128.25002315 -.00110358  00000+0 -46230-3 0  9991
2 63762  43.0050 336.3305 0001908 263.4353 126.7269 15.84815551  2069
STARLINK-11693 [DTC]    
1 63763U 25089N   25128.25002315 -.00057687  00000+0 -23925-3 0  9993
2 63763  43.0051 336.3221 0001851 261.3224 132.2320 15.84802816  1956
STARLINK-33760          
1 63764U 25089P   25128.25002315 -.01124744  00000+0 -53938-2 0  9990
2 63764  43.0056 336.3178 0001808 263.9591 131.2898 15.84100019  2170
STARLINK-33941          
1 63765U 25089Q   25128.25002315 -.01126008  00000+0 -53936-2 0  9994
2 63765  43.0056 336.3128 0001947 272.5142 124.7680 15.84125164  2161
STARLINK-33824          
1 63766U 25089R   25128.25002315 -.01135796  00000+0 -54381-2 0  9994
2 63766  43.0056 336.3077 0001960 270.9578 128.4621 15.84154568  2172
STARLINK-33808          
1 63767U 25089S   25128.25002315 -.01143737  00000+0 -54709-2 0  9993
2 63767  43.0056 336.3029 0002104 274.0783 127.2639 15.84189300  2172
STARLINK-33844          
1 63768U 25089T   25128.25002315 -.01153216  00000+0 -55120-2 0  9995
2 63768  43.0057 336.2981 0001874 263.7675 139.4132 15.84227677  2171
STARLINK-33907          
1 63769U 25089U   25128.25002315 -.01155606  00000+0 -55171-2 0  9997
2 63769  43.0057 336.2932 0001822 269.5311 135.5885 15.84256955  2120
STARLINK-33884          
1 63770U 25089V   25127.91668981 -.01105622  00000+0 -51522-2 0  9997
2 63770  43.0054 338.3415 0001691 265.9865  37.3741 15.85063806  2083
STARLINK-33841          
1 63771U 25089W   25127.91668981 -.01108739  00000+0 -51604-2 0  9991
2 63771  43.0053 338.3364 0001589 273.9380  31.3204 15.85097974  2084
BIOMASS                 
1 63772U 25090A   25127.97460647  .00001092  00000+0  19815-3 0  9999
2 63772  98.0728 316.0580 0001032  35.1341 324.9931 14.68203328  1253
STARLINK-33769          
1 63773U 25089X   25127.91668981 -.01138129  00000+0 -51987-2 0  9993
2 63773  43.0053 338.3304 0001657 273.5337  33.9128 15.85131823  2124
STARLINK-33914          
1 63774U 25089Y   25127.91668981 -.01145018  00000+0 -52244-2 0  9996
2 63774  43.0053 338.3259 0001590 270.6179  38.8276 15.85169370  2139
STARLINK-33932          
1 63775U 25091A   25127.91668981 -.00792727  19950-3 -22056-2 0  9990
2 63775  43.0006 348.8229 0001803 265.6688 338.5863 15.92781099  2089
STARLINK-33930          
1 63776U 25091B   25128.25002315 -.00837571  21956-3 -23832-2 0  9991
2 63776  43.0005 346.7427 0002290 269.9281  88.9793 15.92360173  2076
STARLINK-33911          
1 63777U 25091C   25128.25002315 -.00845343  22348-3 -23940-2 0  9994
2 63777  43.0006 346.7385 0002022 268.8473  91.7090 15.92452685  2077
STARLINK-33938          
1 63778U 25091D   25127.91668981 -.00802085  20427-3 -22045-2 0  9991
2 63778  43.0005 348.8131 0001875 267.0703 341.1840 15.93014895  2120
STARLINK-33881          
1 63779U 25091E   25128.25002315 -.00858019  23001-3 -24082-2 0  9995
2 63779  43.0006 346.7306 0002066 262.8003 100.8433 15.92625849  2070
STARLINK-33846          
1 63780U 25091F   25127.91668981 -.00810896  20879-3 -22049-2 0  9998
2 63780  43.0006 348.8048 0001929 265.2385 346.2948 15.93219822  2084
